NORAD_CAT_ID,OBJECT_NAME,OBJECT_TYPE,EPOCH,MEAN_MOTION,ECCENTRICITY,INCLINATION,RA_OF_ASC_NODE,ARG_OF_PERICENTER,MEAN_ANOMALY,BSTAR,MEAN_MOTION_DOT,MEAN_MOTION_DDOT,TLE_LINE0,TLE_LINE1,TLE_LINE2,SEMIMAJOR_AXIS,PERIOD,APOGEE,PERIGEE,DECAYED
53146.0,STARLINK-4099,PAYLOAD,2022-09-30 14:00:01,15.08873555,0.0001556,53.2192,52.9894,47.7061,196.581,-0.0034179,-0.00054324,0.0,0 STARLINK-4099,1 53146U 22083Q   22273.58334491 -.00054324  00000-0 -34179-2 0  9993,2 53146  53.2192  52.9894 0001556  47.7061 196.5810 15.08873555  1303,6917.778,95.435,540.719,538.566,0.0
53146.0,STARLINK-4099,PAYLOAD,2022-09-30 22:00:00,15.08856273,0.0001696,53.219,51.4937,45.2193,210.6784,-0.0010684,-0.00017259,0.0,0 STARLINK-4099,1 53146U 22083Q   22273.91667824 -.00017259  00000-0 -10684-2 0  9990,2 53146  53.2190  51.4937 0001696  45.2193 210.6784 15.08856273  1303,6917.831,95.437,540.869,538.5219999999998,0.0
53146.0,STARLINK-4099,PAYLOAD,2022-10-01 14:00:01,15.08861345,0.0001685,53.2194,48.5007,50.3595,228.732,-0.0019903,-0.00031843,0.0,0 STARLINK-4099,1 53146U 22083Q   22274.58334491 -.00031843  00000-0 -19903-2 0  9993,2 53146  53.2194  48.5007 0001685  50.3595 228.7320 15.08861345  1305,6917.815,95.436,540.846,538.514,0.0
53146.0,STARLINK-4099,PAYLOAD,2022-10-01 22:00:00,15.08852613,0.0001726,53.2191,47.0048,45.4704,245.2275,-0.0032503999999999,-0.00051666,0.0,0 STARLINK-4099,1 53146U 22083Q   22274.91667824 -.00051666  00000-0 -32504-2 0  9996,2 53146  53.2191  47.0048 0001726  45.4704 245.2275 15.08852613  1305,6917.842,95.437,540.901,538.513,0.0
53146.0,STARLINK-4099,PAYLOAD,2022-10-02 06:00:00,15.08784889,0.0001601,53.2193,45.5069,53.6334,248.6619,0.0037412,0.00059667,0.0,0 STARLINK-4099,1 53146U 22083Q   22275.25001157  .00059667  00000-0  37412-2 0  9995,2 53146  53.2193  45.5069 0001601  53.6334 248.6619 15.08784889 12462,6918.049,95.441,541.021,538.806,0.0
53146.0,STARLINK-4099,PAYLOAD,2022-10-02 14:00:01,15.088331,0.0001733999999999,53.2192,44.0121,50.118,263.7332,-0.00039526,-6.572e-05,0.0,0 STARLINK-4099,1 53146U 22083Q   22275.58334491 -.00006572  00000-0 -39526-3 0  9999,2 53146  53.2192  44.0121 0001734  50.1180 263.7332 15.08833100  1304,6917.901,95.438,540.966,538.567,0.0
53146.0,STARLINK-4099,PAYLOAD,2022-10-02 22:00:00,15.08847576,0.0001761999999999,53.2188,42.5159,46.3452,279.0889,0.0005031,7.730000000000001e-05,0.0,0 STARLINK-4099,1 53146U 22083Q   22275.91667824  .00007730  00000-0  50310-3 0  9994,2 53146  53.2188  42.5159 0001762  46.3452 279.0889 15.08847576 12562,6917.857,95.437,540.941,538.503,0.0
53146.0,STARLINK-4099,PAYLOAD,2022-10-03 14:00:01,15.0886385,0.000171,53.2188,39.5233,47.7027,300.9545,-0.00081066,-0.00013175,0.0,0 STARLINK-4099,1 53146U 22083Q   22276.58334491 -.00013175  00000-0 -81066-3 0  9993,2 53146  53.2188  39.5233 0001710  47.7027 300.9545 15.08863850  1303,6917.807,95.436,540.855,538.49,0.0
53146.0,STARLINK-4099,PAYLOAD,2022-10-03 22:00:00,15.08873815,0.0001823,53.2184,38.0268,46.7045,313.5667,-0.0036830999999999,-0.00058484,0.0,0 STARLINK-4099,1 53146U 22083Q   22276.91667824 -.00058484  00000-0 -36831-2 0  9990,2 53146  53.2184  38.0268 0001823  46.7045 313.5667 15.08873815  1313,6917.776999999999,95.435,540.903,538.381,0.0
53146.0,STARLINK-4099,PAYLOAD,2022-10-04 06:00:00,15.0881345,0.0001730999999999,53.2184,36.529,54.6141,317.2743,0.0038354999999999,0.0006123999999999,0.0,0 STARLINK-4099,1 53146U 22083Q   22277.25001157  .00061240  00000-0  38355-2 0  9994,2 53146  53.2184  36.5290 0001731  54.6141 317.2743 15.08813450 12771,6917.962,95.439,541.024,538.629,0.0
53146.0,STARLINK-4099,PAYLOAD,2022-10-04 14:00:01,15.08856395,0.0001817,53.2184,35.0343,48.89100000000001,334.5867,-0.003409,-0.0005416,0.0,0 STARLINK-4099,1 53146U 22083Q   22277.58334491 -.00054160  00000-0 -34090-2 0  9997,2 53146  53.2184  35.0343 0001817  48.8910 334.5867 15.08856395  1309,6917.83,95.437,540.952,538.438,0.0
53146.0,STARLINK-4099,PAYLOAD,2022-10-04 22:00:00,15.08822782,0.0001792,53.218,33.5381,42.6135,352.4513,-0.00033385,-5.595e-05,0.0,0 STARLINK-4099,1 53146U 22083Q   22277.91667824 -.00005595  00000-0 -33385-3 0  9998,2 53146  53.2180  33.5381 0001792  42.6135 352.4513 15.08822782 12877,6917.933000000001,95.439,541.038,538.558,0.0
53146.0,STARLINK-4099,PAYLOAD,2022-10-05 14:00:01,15.08839282,0.0001889,53.2184,30.5453,46.9548,11.3287,-0.0012767999999999,-0.00020551,0.0,0 STARLINK-4099,1 53146U 22083Q   22278.58335648 -.00020551  00000-0 -12768-2 0  9998,2 53146  53.2184  30.5453 0001889  46.9548  11.3287 15.08839282  1308,6917.8830000000025,95.438,541.054,538.441,0.0
53146.0,STARLINK-4099,PAYLOAD,2022-10-05 22:00:00,15.0884695,0.0001896999999999,53.2184,29.0486,43.1611,26.6416,-0.0026658,-0.00042473,0.0,0 STARLINK-4099,1 53146U 22083Q   22278.91667824 -.00042473  00000-0 -26658-2 0  9999,2 53146  53.2184  29.0486 0001897  43.1611  26.6416 15.08846950 13021,6917.859,95.437,541.036,538.4119999999998,0.0
53146.0,STARLINK-4099,PAYLOAD,2022-10-06 14:00:01,15.08825852,0.0001821999999999,53.2177,26.0593,43.5114,49.4284,0.0010109,0.00015831,0.0,0 STARLINK-4099,1 53146U 22083Q   22279.58334491  .00015831  00000-0  10109-2 0  9994,2 53146  53.2177  26.0593 0001822  43.5114  49.4284 15.08825852  1301,6917.924,95.438,541.049,538.528,0.0
53146.0,STARLINK-4099,PAYLOAD,2022-10-06 22:42:55,15.08868425,0.000188,53.2191,24.4257,41.97,224.5024,-0.0026707,-0.00042575,0.0,0 STARLINK-4099,1 53146U 22083Q   22279.94646991 -.00042575  00000-0 -26707-2 0  9993,2 53146  53.2191  24.4257 0001880  41.9700 224.5024 15.08868425  1304,6917.794,95.436,540.9590000000002,538.3580000000002,0.0
53146.0,STARLINK-4099,PAYLOAD,2022-10-07 14:00:01,15.08833523,0.0001916999999999,53.2195,21.5675,39.3576,88.4171,0.00064247,9.95e-05,0.0,0 STARLINK-4099,1 53146U 22083Q   22280.58334491  .00009950  00000-0  64247-3 0  9994,2 53146  53.2195  21.5675 0001917  39.3576  88.4171 15.08833523  1304,6917.9,95.438,541.091,538.439,0.0
53146.0,STARLINK-4099,PAYLOAD,2022-10-07 22:00:00,15.08869822,0.0001899,53.2196,20.0707,38.571,100.7927,-0.0046816,-0.00074092,0.0,0 STARLINK-4099,1 53146U 22083Q   22280.91667824 -.00074092  00000-0 -46816-2 0  9992,2 53146  53.2196  20.0707 0001899  38.5710 100.7927 15.08869822  1303,6917.7890000000025,95.436,540.9680000000002,538.341,0.0
53146.0,STARLINK-4099,PAYLOAD,2022-10-08 06:00:00,15.08837399,0.0001710999999999,53.2175,18.5765,60.2067,90.6884,-5.0173e-05,-1.086e-05,0.0,0 STARLINK-4099,1 53146U 22083Q   22281.25001157 -.00001086  00000-0 -50173-4 0  9997,2 53146  53.2175  18.5765 0001711  60.2067  90.6884 15.08837399 13379,6917.888000000001,95.438,540.937,538.57,0.0
53146.0,STARLINK-4099,PAYLOAD,2022-10-08 14:00:01,15.08824117,0.0001925,53.2201,17.0789,36.9369,125.5989,-0.00053055,-8.718e-05,0.0,0 STARLINK-4099,1 53146U 22083Q   22281.58334491 -.00008718  00000-0 -53055-3 0  9993,2 53146  53.2201  17.0789 0001925  36.9369 125.5989 15.08824117  1309,6917.929,95.439,541.126,538.462,0.0
53146.0,STARLINK-4099,PAYLOAD,2022-10-08 22:00:00,15.08855142,0.0001878,53.22,15.582,36.9581,137.1471,-0.0032755,-0.00052063,0.0,0 STARLINK-4099,1 53146U 22083Q   22281.91667824 -.00052063  00000-0 -32755-2 0  9994,2 53146  53.2200  15.5820 0001878  36.9581 137.1471 15.08855142  1307,6917.834,95.437,540.998,538.4,0.0
53146.0,STARLINK-4099,PAYLOAD,2022-10-09 14:00:01,15.087975699999998,0.0001932,53.2203,12.5904,34.7142,162.5956,0.0012568,0.00019747,0.0,0 STARLINK-4099,1 53146U 22083Q   22282.58334491  .00019747  00000-0  12568-2 0  9999,2 53146  53.2203  12.5904 0001932  34.7142 162.5956 15.08797570 13572,6918.01,95.44,541.212,538.539,0.0
53146.0,STARLINK-4099,PAYLOAD,2022-10-09 22:00:00,15.08834126,0.0001892,53.22,11.0934,36.1365,172.7206,-0.0004131,-6.856e-05,0.0,0 STARLINK-4099,1 53146U 22083Q   22282.91667824 -.00006856  00000-0 -41310-3 0  9992,2 53146  53.2200  11.0934 0001892  36.1365 172.7206 15.08834126  1302,6917.898,95.438,541.072,538.4540000000002,0.0
53146.0,STARLINK-4099,PAYLOAD,2022-10-10 14:00:01,15.08836296,0.0001935,53.2189,8.1031,40.3117,191.7224,0.00066685,0.0001034,0.0,0 STARLINK-4099,1 53146U 22083Q   22283.58334491  .00010340  00000-0  66685-3 0  9990,2 53146  53.2189   8.1031 0001935  40.3117 191.7224 15.08836296  1304,6917.892,95.438,541.095,538.418,0.0
53146.0,STARLINK-4099,PAYLOAD,2022-10-10 22:00:01,15.08889357,0.0001918,53.2185,6.6056,35.0916,208.6182,-0.0083553,-0.00131034,0.0,0 STARLINK-4099,1 53146U 22083Q   22283.91668981 -.00131034  00000-0 -83553-2 0  9999,2 53146  53.2185   6.6056 0001918  35.0916 208.6182 15.08889357  1306,6917.73,95.434,540.9209999999998,538.268,0.0
53146.0,STARLINK-4099,PAYLOAD,2022-10-11 06:00:00,15.08806374,0.0001673,53.2191,5.1080000000000005,38.2998,216.9302,0.002278,0.00036119,0.0,0 STARLINK-4099,1 53146U 22083Q   22284.25001157  .00036119  00000-0  22780-2 0  9994,2 53146  53.2191   5.1080 0001673  38.2998 216.9302 15.08806374 13821,6917.983,95.44,541.006,538.691,0.0
53146.0,STARLINK-4099,PAYLOAD,2022-10-11 14:00:01,15.08824994,0.0001971,53.2181,3.6144,34.1346,232.6883,0.0011895,0.00018686,0.0,0 STARLINK-4099,1 53146U 22083Q   22284.58334491  .00018686  00000-0  11895-2 0  9994,2 53146  53.2181   3.6144 0001971  34.1346 232.6883 15.08824994  1304,6917.926,95.439,541.155,538.428,0.0
53146.0,STARLINK-4099,PAYLOAD,2022-10-11 22:00:00,15.08838592,0.0001925,53.2175,2.117,33.7112,244.6982,-0.00024265,-4.148e-05,0.0,0 STARLINK-4099,1 53146U 22083Q   22284.91667824 -.00004148  00000-0 -24265-3 0  9996,2 53146  53.2175   2.1170 0001925  33.7112 244.6982 15.08838592  1307,6917.885,95.438,541.081,538.418,0.0
53146.0,STARLINK-4099,PAYLOAD,2022-10-12 06:00:00,15.08837763,0.0001794,53.2186,0.6193,41.5378,248.4311,0.0018355999999999,0.00029045,0.0,0 STARLINK-4099,1 53146U 22083Q   22285.25001157  .00029045  00000-0  18356-2 0  9999,2 53146  53.2186   0.6193 0001794  41.5378 248.4311 15.08837763 13975,6917.887,95.438,540.993,538.511,0.0
